[{"OBJECT_NAME":"NEXSAT-1","OBJECT_ID":"2024-024E","EPOCH":"2026-03-09T22:47:24.778176","MEAN_MOTION":15.32166372,"ECCENTRICITY":0.00099795,"INCLINATION":97.3124,"RA_OF_ASC_NODE":144.1918,"ARG_OF_PERICENTER":108.5709,"MEAN_ANOMALY":251.6617,"EPHEMERIS_TYPE":0,"CLASSIFICATION_TYPE":"U","NORAD_CAT_ID":58921,"ELEMENT_SET_NO":999,"REV_AT_EPOCH":11669,"BSTAR":0.00031433612,"MEAN_MOTION_DOT":9.702e-5,"MEAN_MOTION_DDOT":0},{"OBJECT_NAME":"STARLINK-34438","OBJECT_ID":"2025-223Y","EPOCH":"2026-03-09T21:24:34.764192","MEAN_MOTION":15.30199939,"ECCENTRICITY":0.00011731,"INCLINATION":53.1594,"RA_OF_ASC_NODE":293.4427,"ARG_OF_PERICENTER":75.5579,"MEAN_ANOMALY":284.5552,"EPHEMERIS_TYPE":0,"CLASSIFICATION_TYPE":"U","NORAD_CAT_ID":65876,"ELEMENT_SET_NO":999,"REV_AT_EPOCH":2423,"BSTAR":0.00066923218,"MEAN_MOTION_DOT":0.00019514,"MEAN_MOTION_DDOT":0}]
